NIMIQ 2                 
1 27632U 02062A   26180.32891918 -.00000066  00000+0  00000+0 0  9999
2 27632   9.4727  56.7689 0005785  36.6379 193.2348  1.00272504 44303
ANIK F2                 
1 28378U 04027A   26180.49514472 -.00000042  00000+0  00000+0 0  9999
2 28378   3.3179  79.2904 0004279  16.8300 248.5836  1.00272451 41388
ANIK F1R                
1 28868U 05036A   26180.43100237 -.00000068  00000+0  00000+0 0  9996
2 28868   4.3428  76.4335 0004450   9.8634 239.0739  1.00272170 46571
ANIK F3                 
1 31102U 07009A   26180.49367139  .00000009  00000+0  00000+0 0  9999
2 31102   1.2282  83.7211 0002930  10.8794 241.9888  1.00271006 46680
NIMIQ 4                 
1 33373U 08044A   26180.50095141  .00000000  00000+0  00000+0 0  9995
2 33373   0.0340  53.2043 0001895  47.0675 275.6955  1.00267847 65103
TELSTAR 11N             
1 34111U 09009A   26180.50970479  .00000000  00000+0  00000+0 0  9994
2 34111   0.0290  35.0838 0002774  66.2411 322.2081  1.00268266 46368
TERRESTAR-1             
1 35496U 09035A   26180.47614433 -.00000049  00000+0  00000+0 0  9995
2 35496   5.1854  48.7897 0002555  41.1010 248.0651  1.00270582 62255
NIMIQ 5                 
1 35873U 09050A   26180.50277144 -.00000246  00000+0  00000+0 0  9998
2 35873   0.0323 278.5023 0003054 170.7254 296.6552  1.00271524 61465
SKYTERRA 1              
1 37218U 10061A   26180.42544487 -.00000111  00000+0  00000+0 0  9996
2 37218   5.1501  50.8387 0002347  29.3554 249.1748  1.00273274 57317
TELSTAR 14R             
1 37602U 11021A   26180.50467810 -.00000269  00000+0  00000+0 0  9997
2 37602   0.0486  81.1566 0002385 352.6814 322.4424  1.00271703 55958
NIMIQ 6                 
1 38342U 12026A   26180.49913140 -.00000162  00000+0  00000+0 0  9997
2 38342   0.0188  50.4755 0003015  44.3048 271.3760  1.00271166 50530
ANIK G1                 
1 39127U 13014A   26180.49592472 -.00000063  00000+0  00000+0 0  9998
2 39127   0.0151 321.8869 0001992 136.3079 250.6057  1.00272044 48375
TELSTAR 12V             
1 41036U 15068A   26180.44293733  .00000000  00000+0  00000+0 0  9994
2 41036   0.0260  25.0950 0002615  68.8885 328.0138  1.00270057 38741
VIASAT-2                
1 42740U 17029A   26180.50337809 -.00000254  00000+0  00000+0 0  9998
2 42740   0.0182 302.1396 0000558 144.1058 302.6806  1.00273995 33327
LEO 1 (LEO VANTAGE 1)   
1 43113U 18004C   26180.38385461  .00004677  00000+0  32235-3 0  9991
2 43113  99.2433 100.2648 0350702  42.1642 320.5974 14.67895596439276
TELSTAR 19V             
1 43562U 18059A   26179.86307269 -.00000268  00000+0  00000+0 0  9994
2 43562   0.0128  63.8413 0003091  53.6537  47.1593  1.00270791 29265
TELSTAR 18V             
1 43611U 18069A   26179.90293765 -.00000283  00000+0  00000+0 0  9997
2 43611   0.0130 314.2254 0002108 132.0700 293.7388  1.00269278 28753
AMOS-17                 
1 44479U 19050A   26179.95027228  .00000121  00000+0  00000+0 0  9995
2 44479   0.0225 324.9756 0002306 161.0759 150.0776  1.00273067 25307
